{"fetched_at":"2026-03-30T06:02:59Z","count":15439,"tles":[{"name":"STARLINK-2387","line1":"1 47806U 21018V   26087.59924993 -.00001657  00000+0 -43843-4 0  9996","line2":"2 47806  53.1604 154.6102 0001253  83.3882 276.7262 15.30193391279687","category":"Starlink"}]}